NORAD_CAT_ID,OBJECT_NAME,OBJECT_TYPE,EPOCH,MEAN_MOTION,ECCENTRICITY,INCLINATION,RA_OF_ASC_NODE,ARG_OF_PERICENTER,MEAN_ANOMALY,BSTAR,MEAN_MOTION_DOT,MEAN_MOTION_DDOT,TLE_LINE0,TLE_LINE1,TLE_LINE2,SEMIMAJOR_AXIS,PERIOD,APOGEE,PERIGEE,DECAYED
52697.0,STARLINK-4018,PAYLOAD,2022-06-13 22:00:00,15.73204436,0.0002406,53.2156,166.7356,24.2303,136.2225,5.1535e-05,6.619e-05,0.0,0 STARLINK-4018,1 52697U 22053AT  22164.91667824  .00006619  00000-0  51535-4 0  9994,2 52697  53.2156 166.7356 0002406  24.2303 136.2225 15.73204436  4485,6727.8830000000025,91.533,351.366,348.129,0.0
52697.0,STARLINK-4018,PAYLOAD,2022-06-14 14:00:01,15.73210488,0.0002669,53.2157,163.4383,24.3458,313.9456,-0.00058245,-0.0008163,0.0,0 STARLINK-4018,1 52697U 22053AT  22165.58334491 -.00081630  00000-0 -58245-3 0  9991,2 52697  53.2157 163.4383 0002669  24.3458 313.9456 15.73210488  4599,6727.865,91.533,351.526,347.935,0.0
52697.0,STARLINK-4018,PAYLOAD,2022-06-14 22:00:00,15.73153696,0.0002412,53.2158,161.7872,25.3521,41.8455,0.00035045,0.00048755,0.0,0 STARLINK-4018,1 52697U 22053AT  22165.91667824  .00048755  00000-0  35045-3 0  9999,2 52697  53.2158 161.7872 0002412  25.3521  41.8455 15.73153696  4641,6728.026999999999,91.536,351.515,348.269,0.0
52697.0,STARLINK-4018,PAYLOAD,2022-06-15 06:00:00,15.73162092,0.0002574,53.2159,160.1401,21.9702,134.1327,-7.7196e-05,-0.00011425,0.0,0 STARLINK-4018,1 52697U 22053AT  22166.25001157 -.00011425  00000-0 -77196-4 0  9998,2 52697  53.2159 160.1401 0002574  21.9702 134.1327 15.73162092  4694,6728.003000000002,91.535,351.6,348.136,0.0
52697.0,STARLINK-4018,PAYLOAD,2022-06-15 14:00:01,15.73187279,0.0002515,53.2156,158.4901,20.2057,224.7759,0.00011421,0.00015429,0.0,0 STARLINK-4018,1 52697U 22053AT  22166.58334491  .00015429  00000-0  11421-3 0  9998,2 52697  53.2156 158.4901 0002515  20.2057 224.7759 15.73187279  4752,6727.931,91.534,351.48900000000015,348.10400000000016,0.0
52697.0,STARLINK-4018,PAYLOAD,2022-06-15 22:00:00,15.73209638,0.000228,53.2161,156.8389,22.2738,311.6393,0.00045706,0.00064046,0.0,0 STARLINK-4018,1 52697U 22053AT  22166.91667824  .00064046  00000-0  45706-3 0  9996,2 52697  53.2161 156.8389 0002280  22.2738 311.6393 15.73209638  1309,6727.868,91.533,351.267,348.199,0.0
52697.0,STARLINK-4018,PAYLOAD,2022-06-16 02:00:01,15.73289552,0.0002301,53.2165,156.0152,22.0284,176.3587,-0.00055546,-0.00078165,0.0,0 STARLINK-4018,1 52697U 22053AT  22167.08334491 -.00078165  00000-0 -55546-3 0  9998,2 52697  53.2165 156.0152 0002301  22.0284 176.3587 15.73289552  1305,6727.64,91.528,351.05300000000005,347.957,0.0
52697.0,STARLINK-4018,PAYLOAD,2022-06-19 14:00:01,15.73225158,0.0002329,53.2161,138.6967,24.53,207.6495,-7.0984e-05,-0.00010583,0.0,0 STARLINK-4018,1 52697U 22053AT  22170.58334491 -.00010583  00000-0 -70984-4 0  9991,2 52697  53.2161 138.6967 0002329  24.5300 207.6495 15.73225158  1305,6727.823,91.532,351.255,348.122,0.0
52697.0,STARLINK-4018,PAYLOAD,2022-06-19 22:00:00,15.73210726,0.0002122,53.2165,137.0462,25.8316,295.301,7.6799e-05,0.00010176,0.0,0 STARLINK-4018,1 52697U 22053AT  22170.91667824  .00010176  00000-0  76799-4 0  9993,2 52697  53.2165 137.0462 0002122  25.8316 295.3010 15.73210726  1306,6727.865,91.533,351.157,348.302,0.0
52697.0,STARLINK-4018,PAYLOAD,2022-06-20 14:00:01,15.73214527,0.0002193,53.2164,133.748,16.4169,122.6153,-0.00026605,-0.00037819,0.0,0 STARLINK-4018,1 52697U 22053AT  22171.58334491 -.00037819  00000-0 -26605-3 0  9993,2 52697  53.2164 133.7480 0002193  16.4169 122.6153 15.73214527  1301,6727.854,91.532,351.194,348.24300000000005,0.0
52697.0,STARLINK-4018,PAYLOAD,2022-06-20 22:00:00,15.73207894,0.0002069,53.2164,132.0979,22.0831,205.8795,-0.00017076,-0.00024527,0.0,0 STARLINK-4018,1 52697U 22053AT  22171.91667824 -.00024527  00000-0 -17076-3 0  9993,2 52697  53.2164 132.0979 0002069  22.0831 205.8795 15.73207894  5597,6727.873000000001,91.533,351.13,348.346,0.0
52697.0,STARLINK-4018,PAYLOAD,2022-06-21 14:00:01,15.7321774,0.0002184,53.216,128.7989,25.7316,20.1427,-0.00022747,-0.0003245,0.0,0 STARLINK-4018,1 52697U 22053AT  22172.58334491 -.00032450  00000-0 -22747-3 0  9993,2 52697  53.2160 128.7989 0002184  25.7316  20.1427 15.73217740  5694,6727.845,91.532,351.17900000000014,348.24,0.0
52697.0,STARLINK-4018,PAYLOAD,2022-06-21 22:00:00,15.73221881,0.0002139,53.2159,127.1493,31.7094,103.0734,-0.00032962,-0.00046673,0.0,0 STARLINK-4018,1 52697U 22053AT  22172.91667824 -.00046673  00000-0 -32962-3 0  9991,2 52697  53.2159 127.1493 0002139  31.7094 103.0734 15.73221881  1302,6727.833000000001,91.532,351.13699999999994,348.259,0.0
52697.0,STARLINK-4018,PAYLOAD,2022-06-22 14:00:01,15.73018425,0.0002113,53.2173,123.8522,28.4911,284.2340000000001,-0.003354,-0.00443944,0.0,0 STARLINK-4018,1 52697U 22053AT  22173.58334491 -.00443944  00000-0 -33540-2 0  9990,2 52697  53.2173 123.8522 0002113  28.4911 284.2340 15.73018425  5854,6728.413000000001,91.544,351.7,348.856,0.0
52697.0,STARLINK-4018,PAYLOAD,2022-06-22 22:00:00,15.72839422,0.0002048,53.2178,122.2047,19.5918,21.6481,-0.0084913,-0.01056032,0.0,0 STARLINK-4018,1 52697U 22053AT  22173.91667824 -.01056032  00000-0 -84913-2 0  9995,2 52697  53.2178 122.2047 0002048  19.5918  21.6481 15.72839422  5901,6728.9230000000025,91.554,352.166,349.41,0.0
52697.0,STARLINK-4018,PAYLOAD,2022-06-23 14:00:01,15.71321654,0.0001873,53.2175,118.9163,30.0245,186.3549,-0.0090795,-0.01057894,0.0,0 STARLINK-4018,1 52697U 22053AT  22174.58334491 -.01057894  00000-0 -90795-2 0  9992,2 52697  53.2175 118.9163 0001873  30.0245 186.3549 15.71321654  1301,6733.255999999999,91.643,356.38199999999995,353.86,0.0
52697.0,STARLINK-4018,PAYLOAD,2022-06-23 22:00:00,15.7056122,0.0001698,53.2175,117.2747,30.9914,271.5891,-0.0093555,-0.01055677,0.0,0 STARLINK-4018,1 52697U 22053AT  22174.91667824 -.01055677  00000-0 -93555-2 0  9992,2 52697  53.2175 117.2747 0001698  30.9914 271.5891 15.70561220  6067,6735.429,91.687,358.43800000000016,356.15,0.0
52697.0,STARLINK-4018,PAYLOAD,2022-06-24 14:00:01,15.690393599999998,0.0001433,53.2176,113.9974,40.9995,71.2462,-0.0099205,-0.01050698,0.0,0 STARLINK-4018,1 52697U 22053AT  22175.58334491 -.01050698  00000-0 -99205-2 0  9993,2 52697  53.2176 113.9974 0001433  40.9995  71.2462 15.69039360  1304,6739.784000000002,91.776,362.614,360.6830000000001,0.0
52697.0,STARLINK-4018,PAYLOAD,2022-06-24 20:00:01,15.68469528,0.0001431999999999,53.2177,112.7698,41.5029,43.4257,-0.010147,-0.01049671,0.0,0 STARLINK-4018,1 52697U 22053AT  22175.83334491 -.01049671  00000-0 -10147-1 0  9997,2 52697  53.2177 112.7698 0001432  41.5029  43.4257 15.68469528  6208,6741.416,91.809,364.246,362.315,0.0
52697.0,STARLINK-4018,PAYLOAD,2022-06-24 22:00:01,15.68279869,0.0001535,53.2178,112.3615,48.1129,147.6609,-0.010232,-0.01050174,0.0,0 STARLINK-4018,1 52697U 22053AT  22175.91668981 -.01050174  00000-0 -10232-1 0  9995,2 52697  53.2178 112.3615 0001535  48.1129 147.6609 15.68279869  1303,6741.959,91.82,364.859,362.789,0.0
52697.0,STARLINK-4018,PAYLOAD,2022-06-25 14:00:01,15.66762131,0.0001426,53.2175,109.0951,33.2585,326.6378,-0.010914,-0.01052192,0.0,0 STARLINK-4018,1 52697U 22053AT  22176.58334491 -.01052192  00000-0 -10914-1 0  9994,2 52697  53.2175 109.0951 0001426  33.2585 326.6378 15.66762131  6322,6746.313,91.909,369.14,367.216,0.0
52697.0,STARLINK-4018,PAYLOAD,2022-06-25 22:00:00,15.66002747,0.0001525,53.2175,107.4651,36.2267,44.3941,-0.011252,-0.0105186,0.0,0 STARLINK-4018,1 52697U 22053AT  22176.91667824 -.01051860  00000-0 -11252-1 0  9997,2 52697  53.2175 107.4651 0001525  36.2267  44.3941 15.66002747  1304,6748.493,91.954,371.388,369.329,0.0
52697.0,STARLINK-4018,PAYLOAD,2022-06-26 14:00:01,15.64482559,0.0001396999999999,53.2176,104.2094,51.3696,188.0291,-0.011931,-0.01049321,0.0,0 STARLINK-4018,1 52697U 22053AT  22177.58335648 -.01049321  00000-0 -11931-1 0  9990,2 52697  53.2176 104.2094 0001397  51.3696 188.0291 15.64482559  6481,6752.864000000001,92.043,375.673,373.786,0.0
52697.0,STARLINK-4018,PAYLOAD,2022-06-26 22:00:00,15.63724584,0.0001273,53.2177,102.5851,51.983,265.3364,-0.012325,-0.010514,0.0,0 STARLINK-4018,1 52697U 22053AT  22177.91667824 -.01051400  00000-0 -12325-1 0  9990,2 52697  53.2177 102.5851 0001273  51.9830 265.3364 15.63724584  1305,6755.045999999999,92.088,377.771,376.051,0.0
52697.0,STARLINK-4018,PAYLOAD,2022-06-27 04:00:00,15.63154633,0.0001294,53.2177,101.3691,57.9344,227.2755,-0.012593,-0.01066713,0.0,0 STARLINK-4018,1 52697U 22053AT  22178.16667824 -.01066713  00000-0 -12593-1 0  9998,2 52697  53.2177 101.3691 0001294  57.9344 227.2755 15.63154633  6570,6756.688,92.121,379.42800000000005,377.679,0.0
52697.0,STARLINK-4018,PAYLOAD,2022-06-27 14:00:01,15.62202305,0.000143,53.2175,99.3404,43.4736,67.0835,-0.013008,-0.01061835,0.0,0 STARLINK-4018,1 52697U 22053AT  22178.58334491 -.01061835  00000-0 -13008-1 0  9997,2 52697  53.2175  99.3404 0001430  43.4736  67.0835 15.62202305  1307,6759.434,92.178,382.265,380.332,0.0
52697.0,STARLINK-4018,PAYLOAD,2022-06-27 20:00:01,15.61634041,0.0001383,53.2177,98.1258,43.7494,33.3944,-0.013327,-0.01063754,0.0,0 STARLINK-4018,1 52697U 22053AT  22178.83335648 -.01063754  00000-0 -13327-1 0  9996,2 52697  53.2177  98.1258 0001383  43.7494  33.3944 15.61634041  6671,6761.074000000001,92.211,383.874,382.004,0.0
52697.0,STARLINK-4018,PAYLOAD,2022-06-27 22:00:00,15.61443536,0.000152,53.2176,97.7218,49.1814,136.6238,-0.013412,-0.01062757,0.0,0 STARLINK-4018,1 52697U 22053AT  22178.91667824 -.01062757  00000-0 -13412-1 0  9996,2 52697  53.2176  97.7218 0001520  49.1814 136.6238 15.61443536  1305,6761.624,92.222,384.516,382.461,0.0
52697.0,STARLINK-4018,PAYLOAD,2022-06-28 14:00:01,15.59924211,0.0001151,53.2174,94.488,55.0243,278.5416,-0.014218,-0.01062178,0.0,0 STARLINK-4018,1 52697U 22053AT  22179.58334491 -.01062178  00000-0 -14218-1 0  9993,2 52697  53.2174  94.4880 0001151  55.0243 278.5416 15.59924211  6797,6766.013000000001,92.312,388.657,387.099,0.0
